{
  "norad_id": 58640,
  "name": "STARLINK-31090",
  "history": [
    {
      "epoch": "2026-03-28T16:09:16.914816Z",
      "apogee_km": 484.15474015464315,
      "perigee_km": 481.97534793737213,
      "latitude_deg": -2.6000330629415516e-06,
      "longitude_deg": -116.21956690531859,
      "height_km": 482.7721298072905,
      "semi_major_axis_km": 6861.202044046007,
      "eccentricity": 0.00015882,
      "inclination_deg": 43.0046,
      "raan_deg": 312.1911,
      "arg_perigee_deg": 273.6984,
      "mean_anomaly_deg": 86.3686,
      "mean_motion_rev_day": 15.27574674
    },
    {
      "epoch": "2026-03-29T00:00:03.523392Z",
      "apogee_km": 483.8914872654077,
      "perigee_km": 482.19677552595294,
      "latitude_deg": -3.2944852721583586e-05,
      "longitude_deg": 123.91776293448513,
      "height_km": 482.6665562548607,
      "semi_major_axis_km": 6861.1811313956805,
      "eccentricity": 0.0001235,
      "inclination_deg": 43.0038,
      "raan_deg": 310.3449,
      "arg_perigee_deg": 280.5104,
      "mean_anomaly_deg": 79.5608,
      "mean_motion_rev_day": 15.27581658
    }
  ]
}